CCSDS_OMM_VERS = 2.0
CREATION_DATE  = 
ORIGINATOR     = 

OBJECT_NAME    = UNKNOWN
OBJECT_ID      = 
CENTER_NAME    = EARTH
REF_FRAME      = TEME
TIME_SYSTEM    = UTC
MEAN_ELEMENT_THEORY = SGP/SGP4

EPOCH          = 2025-12-26T17:52:16.603968
MEAN_MOTION    = 14.40406335
ECCENTRICITY   = .000696
INCLINATION    = 71.0015
RA_OF_ASC_NODE = 356.8671
ARG_OF_PERICENTER = 227.5998
MEAN_ANOMALY   = 132.4550

EPHEMERIS_TYPE = 0
CLASSIFICATION_TYPE = U
NORAD_CAT_ID   = 81745
ELEMENT_SET_NO = 999
REV_AT_EPOCH   = 63176
BSTAR          = .89466E-3
MEAN_MOTION_DOT = .2794E-4
MEAN_MOTION_DDOT = 0

CCSDS_OMM_VERS = 2.0
CREATION_DATE  = 
ORIGINATOR     = 

OBJECT_NAME    = UNKNOWN
OBJECT_ID      = 
CENTER_NAME    = EARTH
REF_FRAME      = TEME
TIME_SYSTEM    = UTC
MEAN_ELEMENT_THEORY = SGP/SGP4

EPOCH          = 2025-12-28T13:34:57.204768
MEAN_MOTION    = 14.41038083
ECCENTRICITY   = .0015896
INCLINATION    = 82.9186
RA_OF_ASC_NODE = 211.1665
ARG_OF_PERICENTER = 202.6442
MEAN_ANOMALY   = 157.4051

EPHEMERIS_TYPE = 0
CLASSIFICATION_TYPE = U
NORAD_CAT_ID   = 81775
ELEMENT_SET_NO = 999
REV_AT_EPOCH   = 62755
BSTAR          = .24342E-2
MEAN_MOTION_DOT = .786E-4
MEAN_MOTION_DDOT = 0

CCSDS_OMM_VERS = 2.0
CREATION_DATE  = 
ORIGINATOR     = 

OBJECT_NAME    = UNKNOWN
OBJECT_ID      = 
CENTER_NAME    = EARTH
REF_FRAME      = TEME
TIME_SYSTEM    = UTC
MEAN_ELEMENT_THEORY = SGP/SGP4

EPOCH          = 2025-12-29T12:06:58.871520
MEAN_MOTION    = 9.34318186
ECCENTRICITY   = .1589414
INCLINATION    = 54.5598
RA_OF_ASC_NODE = 184.3393
ARG_OF_PERICENTER = 69.2338
MEAN_ANOMALY   = 307.1105

EPHEMERIS_TYPE = 0
CLASSIFICATION_TYPE = U
NORAD_CAT_ID   = 81779
ELEMENT_SET_NO = 999
REV_AT_EPOCH   = 48188
BSTAR          = .29151E+0
MEAN_MOTION_DOT = .5646E-4
MEAN_MOTION_DDOT = 0

CCSDS_OMM_VERS = 2.0
CREATION_DATE  = 
ORIGINATOR     = 

OBJECT_NAME    = UNKNOWN
OBJECT_ID      = 
CENTER_NAME    = EARTH
REF_FRAME      = TEME
TIME_SYSTEM    = UTC
MEAN_ELEMENT_THEORY = SGP/SGP4

EPOCH          = 2025-12-25T11:20:15.127584
MEAN_MOTION    = 13.10948600
ECCENTRICITY   = .0896673
INCLINATION    = 65.8248
RA_OF_ASC_NODE = 67.2597
ARG_OF_PERICENTER = 276.7541
MEAN_ANOMALY   = 73.2371

EPHEMERIS_TYPE = 0
CLASSIFICATION_TYPE = U
NORAD_CAT_ID   = 81792
ELEMENT_SET_NO = 999
REV_AT_EPOCH   = 8170
BSTAR          = .96589E-3
MEAN_MOTION_DOT = .2712E-4
MEAN_MOTION_DDOT = 0

CCSDS_OMM_VERS = 2.0
CREATION_DATE  = 
ORIGINATOR     = 

OBJECT_NAME    = UNKNOWN
OBJECT_ID      = 
CENTER_NAME    = EARTH
REF_FRAME      = TEME
TIME_SYSTEM    = UTC
MEAN_ELEMENT_THEORY = SGP/SGP4

EPOCH          = 2025-12-24T05:11:08.218176
MEAN_MOTION    = 12.37649579
ECCENTRICITY   = .0272769
INCLINATION    = 103.8162
RA_OF_ASC_NODE = 271.3671
ARG_OF_PERICENTER = 230.8575
MEAN_ANOMALY   = 126.7948

EPHEMERIS_TYPE = 0
CLASSIFICATION_TYPE = U
NORAD_CAT_ID   = 81812
ELEMENT_SET_NO = 999
REV_AT_EPOCH   = 54198
BSTAR          = .2868E-2
MEAN_MOTION_DOT = .367E-5
MEAN_MOTION_DDOT = 0

CCSDS_OMM_VERS = 2.0
CREATION_DATE  = 
ORIGINATOR     = 

OBJECT_NAME    = UNKNOWN
OBJECT_ID      = 
CENTER_NAME    = EARTH
REF_FRAME      = TEME
TIME_SYSTEM    = UTC
MEAN_ELEMENT_THEORY = SGP/SGP4

EPOCH          = 2025-12-19T12:06:34.107552
MEAN_MOTION    = 13.89487247
ECCENTRICITY   = .0180552
INCLINATION    = 66.2374
RA_OF_ASC_NODE = 279.2580
ARG_OF_PERICENTER = 242.7865
MEAN_ANOMALY   = 115.4710

EPHEMERIS_TYPE = 0
CLASSIFICATION_TYPE = U
NORAD_CAT_ID   = 81816
ELEMENT_SET_NO = 999
REV_AT_EPOCH   = 61028
BSTAR          = .26063E-3
MEAN_MOTION_DOT = .282E-5
MEAN_MOTION_DDOT = 0

CCSDS_OMM_VERS = 2.0
CREATION_DATE  = 
ORIGINATOR     = 

OBJECT_NAME    = UNKNOWN
OBJECT_ID      = 
CENTER_NAME    = EARTH
REF_FRAME      = TEME
TIME_SYSTEM    = UTC
MEAN_ELEMENT_THEORY = SGP/SGP4

EPOCH          = 2025-12-11T05:11:47.834304
MEAN_MOTION    = 12.47649248
ECCENTRICITY   = .0035403
INCLINATION    = 102.1752
RA_OF_ASC_NODE = 82.3604
ARG_OF_PERICENTER = 125.3291
MEAN_ANOMALY   = 235.1094

EPHEMERIS_TYPE = 0
CLASSIFICATION_TYPE = U
NORAD_CAT_ID   = 81819
ELEMENT_SET_NO = 999
REV_AT_EPOCH   = 54782
BSTAR          = .89E-2
MEAN_MOTION_DOT = .1269E-4
MEAN_MOTION_DDOT = 0

CCSDS_OMM_VERS = 2.0
CREATION_DATE  = 
ORIGINATOR     = 

OBJECT_NAME    = UNKNOWN
OBJECT_ID      = 
CENTER_NAME    = EARTH
REF_FRAME      = TEME
TIME_SYSTEM    = UTC
MEAN_ELEMENT_THEORY = SGP/SGP4

EPOCH          = 2025-12-28T10:34:07.932576
MEAN_MOTION    = 14.35573743
ECCENTRICITY   = .0043424
INCLINATION    = 65.8430
RA_OF_ASC_NODE = 294.4369
ARG_OF_PERICENTER = 321.2910
MEAN_ANOMALY   = 38.5073

EPHEMERIS_TYPE = 0
CLASSIFICATION_TYPE = U
NORAD_CAT_ID   = 81824
ELEMENT_SET_NO = 999
REV_AT_EPOCH   = 62684
BSTAR          = .26633E-2
MEAN_MOTION_DOT = .7685E-4
MEAN_MOTION_DDOT = 0

CCSDS_OMM_VERS = 2.0
CREATION_DATE  = 
ORIGINATOR     = 

OBJECT_NAME    = UNKNOWN
OBJECT_ID      = 
CENTER_NAME    = EARTH
REF_FRAME      = TEME
TIME_SYSTEM    = UTC
MEAN_ELEMENT_THEORY = SGP/SGP4

EPOCH          = 2025-12-28T06:38:26.872224
MEAN_MOTION    = 12.93732449
ECCENTRICITY   = .0026685
INCLINATION    = 90.2395
RA_OF_ASC_NODE = 3.2458
ARG_OF_PERICENTER = 345.8080
MEAN_ANOMALY   = 14.2286

EPHEMERIS_TYPE = 0
CLASSIFICATION_TYPE = U
NORAD_CAT_ID   = 81833
ELEMENT_SET_NO = 999
REV_AT_EPOCH   = 45452
BSTAR          = .45501E-3
MEAN_MOTION_DOT = .133E-5
MEAN_MOTION_DDOT = 0

CCSDS_OMM_VERS = 2.0
CREATION_DATE  = 
ORIGINATOR     = 

OBJECT_NAME    = UNKNOWN
OBJECT_ID      = 
CENTER_NAME    = EARTH
REF_FRAME      = TEME
TIME_SYSTEM    = UTC
MEAN_ELEMENT_THEORY = SGP/SGP4

EPOCH          = 2025-12-27T00:15:04.708224
MEAN_MOTION    = 14.33032335
ECCENTRICITY   = .006309
INCLINATION    = 82.9097
RA_OF_ASC_NODE = 270.8356
ARG_OF_PERICENTER = 107.3603
MEAN_ANOMALY   = 253.4499

EPHEMERIS_TYPE = 0
CLASSIFICATION_TYPE = U
NORAD_CAT_ID   = 81844
ELEMENT_SET_NO = 999
REV_AT_EPOCH   = 62493
BSTAR          = .11242E-2
MEAN_MOTION_DOT = .3164E-4
MEAN_MOTION_DDOT = 0

CCSDS_OMM_VERS = 2.0
CREATION_DATE  = 
ORIGINATOR     = 

OBJECT_NAME    = UNKNOWN
OBJECT_ID      = 
CENTER_NAME    = EARTH
REF_FRAME      = TEME
TIME_SYSTEM    = UTC
MEAN_ELEMENT_THEORY = SGP/SGP4

EPOCH          = 2025-12-26T07:22:16.326624
MEAN_MOTION    = 14.85141673
ECCENTRICITY   = .0086519
INCLINATION    = 97.6745
RA_OF_ASC_NODE = 186.8298
ARG_OF_PERICENTER = 260.4586
MEAN_ANOMALY   = 276.6736

EPHEMERIS_TYPE = 0
CLASSIFICATION_TYPE = U
NORAD_CAT_ID   = 81845
ELEMENT_SET_NO = 999
REV_AT_EPOCH   = 65153
BSTAR          = .41382E-3
MEAN_MOTION_DOT = .373E-4
MEAN_MOTION_DDOT = 0

CCSDS_OMM_VERS = 2.0
CREATION_DATE  = 
ORIGINATOR     = 

OBJECT_NAME    = UNKNOWN
OBJECT_ID      = 
CENTER_NAME    = EARTH
REF_FRAME      = TEME
TIME_SYSTEM    = UTC
MEAN_ELEMENT_THEORY = SGP/SGP4

EPOCH          = 2025-12-19T04:10:35.906880
MEAN_MOTION    = 13.32378485
ECCENTRICITY   = .0763755
INCLINATION    = 65.6722
RA_OF_ASC_NODE = 51.8300
ARG_OF_PERICENTER = 10.3384
MEAN_ANOMALY   = 351.2397

EPHEMERIS_TYPE = 0
CLASSIFICATION_TYPE = U
NORAD_CAT_ID   = 81864
ELEMENT_SET_NO = 999
REV_AT_EPOCH   = 55169
BSTAR          = .3243E-3
MEAN_MOTION_DOT = .762E-5
MEAN_MOTION_DDOT = 0

