UNKNOWN                 
1 81745U          25360.74463662  .00002794  00000+0  89466-3 0  9996
2 81745  71.0015 356.8671 0006960 227.5998 132.4550 14.40406335631763
UNKNOWN                 
1 81775U          25362.56593987  .00007860  00000+0  24342-2 0  9995
2 81775  82.9186 211.1665 0015896 202.6442 157.4051 14.41038083627555
UNKNOWN                 
1 81779U          25363.50484805  .00005646  00000+0  29151+0 0  9992
2 81779  54.5598 184.3393 1589414  69.2338 307.1105  9.34318186481883
UNKNOWN                 
1 81792U          25359.47239731  .00002712  00000+0  96589-3 0  9998
2 81792  65.8248  67.2597 0896673 276.7541  73.2371 13.10948600 81700
UNKNOWN                 
1 81812U          25358.21606734  .00000367  00000+0  28680-2 0  9993
2 81812 103.8162 271.3671 0272769 230.8575 126.7948 12.37649579541980
UNKNOWN                 
1 81816U          25353.50456143  .00000282  00000+0  26063-3 0  9991
2 81816  66.2374 279.2580 0180552 242.7865 115.4710 13.89487247610281
UNKNOWN                 
1 81819U          25345.21652586  .00001269  00000+0  89000-2 0  9997
2 81819 102.1752  82.3604 0035403 125.3291 235.1094 12.47649248547825
UNKNOWN                 
1 81824U          25362.44036959  .00007685  00000+0  26633-2 0  9998
2 81824  65.8430 294.4369 0043424 321.2910  38.5073 14.35573743626847
UNKNOWN                 
1 81833U          25362.27669991  .00000133  00000+0  45501-3 0  9994
2 81833  90.2395   3.2458 0026685 345.8080  14.2286 12.93732449454527
UNKNOWN                 
1 81844U          25361.01047116  .00003164  00000+0  11242-2 0  9997
2 81844  82.9097 270.8356 0063090 107.3603 253.4499 14.33032335624938
UNKNOWN                 
1 81845U          25360.30713341  .00003730  00000+0  41382-3 0  9997
2 81845  97.6745 186.8298 0086519 260.4586 276.6736 14.85141673651535
UNKNOWN                 
1 81864U          25353.17402670  .00000762  00000+0  32430-3 0  9991
2 81864  65.6722  51.8300 0763755  10.3384 351.2397 13.32378485551696
